TRANSIT 16              
1 02807U 67048A   13027.18724708  .00000085  00000-0  11771-3 0  8815
2 02807  89.6804 160.6075 0020318  31.3471  67.0662 13.49883734248687
TRANSIT 17              
1 02965U 67092A   13025.53477834  .00000052  00000-0  61562-4 0  1014
2 02965  89.2475  21.9147 0047432 204.7343 303.0893 13.52602129235317
TRANSIT 18              
1 03133U 68012A   13027.30755319  .00000095  00000-0  12979-3 0  3532
2 03133  89.9597 282.2888 0076674 105.2350  13.7580 13.50704466210747
NNSS 19                 
1 04507U 70067A   13026.82626554  .00000050  00000-0  58919-4 0   448
2 04507  89.8309 291.0164 0171515 226.9584 161.9532 13.50337066 87752
NNSS O-20               
1 06909U 73081A   13027.22274642  .00000156  00000-0  14981-3 0  5191
2 06909  89.8606 338.9091 0160078 119.7668 334.4760 13.70015258159774
TRANSAT                 
1 10457U 77106A   13026.87966825  .00000035  00000-0  39277-4 0  4952
2 10457  89.7370 210.2817 0027211  70.6709  60.1026 13.48380322733794
NOVA I                  
1 12458U 81044A   13026.84172524  .00000061  00000-0  12513-3 0  8094
2 12458  90.0260 123.1508 0016205 109.9858  38.8832 13.22804664530290
NOVA 3                  
1 15362U 84110A   13025.59234815  .00000027  00000-0  44362-4 0  5537
2 15362  90.0092  50.4252 0030677 334.9596 139.8178 13.22576963365363
OSCAR 30                
1 15935U 85066A   13026.26274897  .00000032  00000-0  41637-4 0  1267
2 15935  90.0910  32.4333 0169642  28.5490  58.7097 13.35399075336731
OSCAR 24                
1 15936U 85066B   13027.59956677  .00000046  00000-0  67260-4 0  7753
2 15936  90.0800  28.1179 0170477  28.3456  87.9264 13.35287431339025
POLAR BEAR              
1 17070U 86088A   13027.24288166  .00000029  00000-0  19052-4 0  9302
2 17070  89.5276  44.2825 0037089 251.9623 163.4885 13.74490581313952
OSCAR 27                
1 18361U 87080A   13026.30603519  .00000083  00000-0  12578-3 0   988
2 18361  90.3632 279.8266 0105449   8.0258 114.3581 13.44212649243828
OSCAR 29                
1 18362U 87080B   13026.79003640  .00000066  00000-0  96459-4 0  3560
2 18362  90.3639 280.0234 0107403  19.9979  46.7569 13.43826125243618
OSCAR 23                
1 19070U 88033A   13027.83839772  .00000019  00000-0  25761-4 0  5710
2 19070  90.3032 220.6209 0187918 290.9882 152.0149 13.27227129199006
OSCAR 32                
1 19071U 88033B   13026.13710247  .00000066  00000-0  12056-3 0  9334
2 19071  90.3028 220.6540 0186460 286.4793 225.9235 13.27421166198969
NOVA 11                 
1 19223U 88052A   13027.16687975  .00000064  00000-0  13222-3 0  1043
2 19223  89.9862  91.3443 0030316  13.9711  37.8458 13.22506408188104
OSCAR 25                
1 19419U 88074A   13027.10605370  .00000039  00000-0  52460-4 0  3432
2 19419  89.9553  23.3198 0095446 335.9187  65.3754 13.41946999195847
OSCAR 31                
1 19420U 88074B   13027.55019089 -.00000007  00000-0 -27620-4 0   174
2 19420  89.9556  23.2731 0093369 328.9523 144.7830 13.41983440196000
